{
  "type": "FeatureCollection",
  "features": [
    {
      "type": "Feature",
      "properties": {
        "norad_id": 34079,
        "name": "IRIDIUM 33 DEB",
        "group": "iridium-33-debris",
        "lat": 59.771727466609875,
        "lon": 176.93872708991267,
        "alt_km": 614.2056131781465,
        "timestamp": "2025-12-24T18:55:56.456107+00:00",
        "meta_object_name": "IRIDIUM 33 DEB",
        "meta_object_id": "1997-051CN",
        "meta_epoch": "2025-12-24T07:07:42.585888",
        "meta_mean_motion": 14.83824008,
        "meta_eccentricity": 0.00041549,
        "meta_inclination": 86.3775,
        "meta_ra_of_asc_node": 3.4043,
        "meta_arg_of_pericenter": 325.1888,
        "meta_mean_anomaly": 49.2634,
        "meta_ephemeris_type": 0,
        "meta_classification_type": "U",
        "meta_norad_cat_id": 34079,
        "meta_element_set_no": 999,
        "meta_rev_at_epoch": 89149,
        "meta_bstar": 0.0020545843,
        "meta_mean_motion_dot": 0.00017077,
        "meta_mean_motion_ddot": 0,
        "tle_line1": "1 34079U 97051CN  25358.29702067  .00017077  00000+0  20546-2 0  9991",
        "tle_line2": "2 34079  86.3775   3.4043 0004154 325.1888  49.2634 14.83824008891491"
      },
      "geometry": {
        "type": "Point",
        "coordinates": [
          176.93872708991267,
          59.771727466609875
        ]
      }
    },
    {
      "type": "Feature",
      "properties": {
        "norad_id": 34088,
        "name": "IRIDIUM 33 DEB",
        "group": "iridium-33-debris",
        "lat": -16.572617291855952,
        "lon": -153.73713450871674,
        "alt_km": 594.4237614875892,
        "timestamp": "2025-12-24T18:55:56.456117+00:00",
        "meta_object_name": "IRIDIUM 33 DEB",
        "meta_object_id": "1997-051CX",
        "meta_epoch": "2025-12-24T03:52:26.243040",
        "meta_mean_motion": 14.91875213,
        "meta_eccentricity": 0.00069452,
        "meta_inclination": 86.3838,
        "meta_ra_of_asc_node": 25.473,
        "meta_arg_of_pericenter": 140.8902,
        "meta_mean_anomaly": 287.9518,
        "meta_ephemeris_type": 0,
        "meta_classification_type": "U",
        "meta_norad_cat_id": 34088,
        "meta_element_set_no": 999,
        "meta_rev_at_epoch": 88912,
        "meta_bstar": 0.002377824,
        "meta_mean_motion_dot": 0.0002411,
        "meta_mean_motion_ddot": 0,
        "tle_line1": "1 34088U 97051CX  25358.16141485  .00024110  00000+0  23778-2 0  9994",
        "tle_line2": "2 34088  86.3838  25.4730 0006945 140.8902 287.9518 14.91875213889129"
      },
      "geometry": {
        "type": "Point",
        "coordinates": [
          -153.73713450871674,
          -16.572617291855952
        ]
      }
    },
    {
      "type": "Feature",
      "properties": {
        "norad_id": 34091,
        "name": "IRIDIUM 33 DEB",
        "group": "iridium-33-debris",
        "lat": -24.579602849578052,
        "lon": 59.63476176379872,
        "alt_km": 624.530521081464,
        "timestamp": "2025-12-24T18:55:56.456127+00:00",
        "meta_object_name": "IRIDIUM 33 DEB",
        "meta_object_id": "1997-051DA",
        "meta_epoch": "2025-12-24T04:27:55.115712",
        "meta_mean_motion": 14.82638627,
        "meta_eccentricity": 0.00341931,
        "meta_inclination": 86.341,
        "meta_ra_of_asc_node": 61.5885,
        "meta_arg_of_pericenter": 252.1863,
        "meta_mean_anomaly": 107.5629,
        "meta_ephemeris_type": 0,
        "meta_classification_type": "U",
        "meta_norad_cat_id": 34091,
        "meta_element_set_no": 999,
        "meta_rev_at_epoch": 88036,
        "meta_bstar": 0.0055307973,
        "meta_mean_motion_dot": 0.00045262,
        "meta_mean_motion_ddot": 0,
        "tle_line1": "1 34091U 97051DA  25358.18605458  .00045262  00000+0  55308-2 0  9990",
        "tle_line2": "2 34091  86.3410  61.5885 0034193 252.1863 107.5629 14.82638627880363"
      },
      "geometry": {
        "type": "Point",
        "coordinates": [
          59.63476176379872,
          -24.579602849578052
        ]
      }
    },
    {
      "type": "Feature",
      "properties": {
        "norad_id": 34097,
        "name": "IRIDIUM 33 DEB",
        "group": "iridium-33-debris",
        "lat": -30.814558447626723,
        "lon": -6.1832466944383935,
        "alt_km": 723.6398626300643,
        "timestamp": "2025-12-24T18:55:56.456137+00:00",
        "meta_object_name": "IRIDIUM 33 DEB",
        "meta_object_id": "1997-051DG",
        "meta_epoch": "2025-12-24T00:39:48.601440",
        "meta_mean_motion": 14.34864137,
        "meta_eccentricity": 0.00814826,
        "meta_inclination": 86.2003,
        "meta_ra_of_asc_node": 356.4244,
        "meta_arg_of_pericenter": 325.2171,
        "meta_mean_anomaly": 34.3712,
        "meta_ephemeris_type": 0,
        "meta_classification_type": "U",
        "meta_norad_cat_id": 34097,
        "meta_element_set_no": 999,
        "meta_rev_at_epoch": 87281,
        "meta_bstar": 0.0015312665,
        "meta_mean_motion_dot": 4.532e-05,
        "meta_mean_motion_ddot": 0,
        "tle_line1": "1 34097U 97051DG  25358.02764585  .00004532  00000+0  15313-2 0  9993",
        "tle_line2": "2 34097  86.2003 356.4244 0081482 325.2171  34.3712 14.34864137872813"
      },
      "geometry": {
        "type": "Point",
        "coordinates": [
          -6.1832466944383935,
          -30.814558447626723
        ]
      }
    },
    {
      "type": "Feature",
      "properties": {
        "norad_id": 34145,
        "name": "IRIDIUM 33 DEB",
        "group": "iridium-33-debris",
        "lat": -23.904269891814756,
        "lon": 148.84251095013326,
        "alt_km": 789.9775312718075,
        "timestamp": "2025-12-24T18:55:56.456148+00:00",
        "meta_object_name": "IRIDIUM 33 DEB",
        "meta_object_id": "1997-051DY",
        "meta_epoch": "2025-12-23T08:41:39.975936",
        "meta_mean_motion": 14.42361739,
        "meta_eccentricity": 0.00555944,
        "meta_inclination": 86.2126,
        "meta_ra_of_asc_node": 327.7951,
        "meta_arg_of_pericenter": 60.0799,
        "meta_mean_anomaly": 300.5906,
        "meta_ephemeris_type": 0,
        "meta_classification_type": "U",
        "meta_norad_cat_id": 34145,
        "meta_element_set_no": 999,
        "meta_rev_at_epoch": 87791,
        "meta_bstar": 0.0012419771,
        "meta_mean_motion_dot": 4.2e-05,
        "meta_mean_motion_ddot": 0,
        "tle_line1": "1 34145U 97051DY  25357.36226824  .00004200  00000+0  12420-2 0  9990",
        "tle_line2": "2 34145  86.2126 327.7951 0055594  60.0799 300.5906 14.42361739877912"
      },
      "geometry": {
        "type": "Point",
        "coordinates": [
          148.84251095013326,
          -23.904269891814756
        ]
      }
    },
    {
      "type": "Feature",
      "properties": {
        "norad_id": 34146,
        "name": "IRIDIUM 33 DEB",
        "group": "iridium-33-debris",
        "lat": 46.223099235688395,
        "lon": 160.58789556071997,
        "alt_km": 711.4443776180406,
        "timestamp": "2025-12-24T18:55:56.456158+00:00",
        "meta_object_name": "IRIDIUM 33 DEB",
        "meta_object_id": "1997-051DZ",
        "meta_epoch": "2025-12-24T07:01:03.056736",
        "meta_mean_motion": 14.49120494,
        "meta_eccentricity": 0.00267715,
        "meta_inclination": 86.2841,
        "meta_ra_of_asc_node": 344.6961,
        "meta_arg_of_pericenter": 181.7389,
        "meta_mean_anomaly": 243.8071,
        "meta_ephemeris_type": 0,
        "meta_classification_type": "U",
        "meta_norad_cat_id": 34146,
        "meta_element_set_no": 999,
        "meta_rev_at_epoch": 88274,
        "meta_bstar": 0.00090944311,
        "meta_mean_motion_dot": 3.492e-05,
        "meta_mean_motion_ddot": 0,
        "tle_line1": "1 34146U 97051DZ  25358.29239649  .00003492  00000+0  90944-3 0  9993",
        "tle_line2": "2 34146  86.2841 344.6961 0026771 181.7389 243.8071 14.49120494882744"
      },
      "geometry": {
        "type": "Point",
        "coordinates": [
          160.58789556071997,
          46.223099235688395
        ]
      }
    },
    {
      "type": "Feature",
      "properties": {
        "norad_id": 34159,
        "name": "IRIDIUM 33 DEB",
        "group": "iridium-33-debris",
        "lat": 69.45074523132651,
        "lon": -146.70480456890223,
        "alt_km": 769.946727238671,
        "timestamp": "2025-12-24T18:55:56.456169+00:00",
        "meta_object_name": "IRIDIUM 33 DEB",
        "meta_object_id": "1997-051EN",
        "meta_epoch": "2025-12-24T03:23:40.790976",
        "meta_mean_motion": 14.38520476,
        "meta_eccentricity": 0.00261498,
        "meta_inclination": 86.3488,
        "meta_ra_of_asc_node": 43.3787,
        "meta_arg_of_pericenter": 247.4355,
        "meta_mean_anomaly": 112.4075,
        "meta_ephemeris_type": 0,
        "meta_classification_type": "U",
        "meta_norad_cat_id": 34159,
        "meta_element_set_no": 999,
        "meta_rev_at_epoch": 88123,
        "meta_bstar": 0.00037197532,
        "meta_mean_motion_dot": 1.16e-05,
        "meta_mean_motion_ddot": 0,
        "tle_line1": "1 34159U 97051EN  25358.14144434  .00001160  00000+0  37198-3 0  9990",
        "tle_line2": "2 34159  86.3488  43.3787 0026149 247.4355 112.4075 14.38520476881237"
      },
      "geometry": {
        "type": "Point",
        "coordinates": [
          -146.70480456890223,
          69.45074523132651
        ]
      }
    }
  ]
}